[{"OBJECT_NAME":"TIANQI-23","OBJECT_ID":"2023-135C","EPOCH":"2026-03-09T20:31:13.186272","MEAN_MOTION":14.2309434,"ECCENTRICITY":0.00136094,"INCLINATION":49.9718,"RA_OF_ASC_NODE":210.4766,"ARG_OF_PERICENTER":271.4646,"MEAN_ANOMALY":88.4707,"EPHEMERIS_TYPE":0,"CLASSIFICATION_TYPE":"U","NORAD_CAT_ID":57794,"ELEMENT_SET_NO":999,"REV_AT_EPOCH":13048,"BSTAR":0.00026414029,"MEAN_MOTION_DOT":4.41e-6,"MEAN_MOTION_DDOT":0},{"OBJECT_NAME":"NOAA 16 DEB","OBJECT_ID":"2000-055TA","EPOCH":"2026-03-09T09:49:56.833248","MEAN_MOTION":14.20028982,"ECCENTRICITY":0.00159968,"INCLINATION":98.58,"RA_OF_ASC_NODE":127.4677,"ARG_OF_PERICENTER":239.1554,"MEAN_ANOMALY":120.8049,"EPHEMERIS_TYPE":0,"CLASSIFICATION_TYPE":"U","NORAD_CAT_ID":42406,"ELEMENT_SET_NO":999,"REV_AT_EPOCH":51485,"BSTAR":0.00061023348,"MEAN_MOTION_DOT":1.258e-5,"MEAN_MOTION_DDOT":0}]
